[
    {
        "Altitude(m)": 611967.1918135192,
        "Argument of Periapsis(deg)": 0.0,
        "Eccentricity": 0.0,
        "Inclination(deg)": 60.0,
        "Latitude(deg)": 59.14020062297216,
        "Longitude(deg)": 31.091908869830103,
        "Mean Anomaly(deg)": 98.18179999999998,
        "RAAN(deg)": 25.0,
        "Satellite Name": "Test1 116",
        "Satellite Number": 116,
        "Semi-Major Axis(m)": 6980739.136638005,
        "Time(s)": 0
    },
    {
        "Altitude(m)": 611934.3922893605,
        "Argument of Periapsis(deg)": 0.00010418945913296404,
        "Eccentricity": 0.0,
        "Inclination(deg)": 60.0,
        "Latitude(deg)": 58.986564550018564,
        "Longitude(deg)": 32.21515680126744,
        "Mean Anomaly(deg)": 98.80190614546183,
        "RAAN(deg)": 24.99957995086026,
        "Satellite Name": "Test1 116",
        "Satellite Number": 116,
        "Semi-Major Axis(m)": 6980739.136638005,
        "Time(s)": 10
    }
]